[
    {
        "Altitude(m)": 702828.3029081214,
        "Argument of Periapsis(deg)": 0.006834072711976239,
        "Eccentricity": 0.0,
        "Inclination(deg)": 45.0,
        "Latitude(deg)": 6.636672225508484,
        "Longitude(deg)": 57.902475299380306,
        "Mean Anomaly(deg)": -189.44367001151147,
        "RAAN(deg)": 344.9935488351251,
        "Satellite Name": "Constellation 1 1528",
        "Satellite Number": 1528,
        "Semi-Major Axis(m)": 7083131.272910544,
        "Time(s)": 114
    },
    {
        "Altitude(m)": 702830.7237070916,
        "Argument of Periapsis(deg)": 0.006894020718221645,
        "Eccentricity": 0.0,
        "Inclination(deg)": 45.0,
        "Latitude(deg)": 6.593741752975042,
        "Longitude(deg)": 57.94180554166679,
        "Mean Anomaly(deg)": -189.38296887126157,
        "RAAN(deg)": 344.99349224595954,
        "Satellite Name": "Constellation 1 1528",
        "Satellite Number": 1528,
        "Semi-Major Axis(m)": 7083131.272910544,
        "Time(s)": 115
    },
    {
        "Altitude(m)": 702833.1650350152,
        "Argument of Periapsis(deg)": 0.006953968724467052,
        "Eccentricity": 0.0,
        "Inclination(deg)": 45.0,
        "Latitude(deg)": 6.550807478410209,
        "Longitude(deg)": 57.98112826253104,
        "Mean Anomaly(deg)": -189.32226773101172,
        "RAAN(deg)": 344.9934356567939,
        "Satellite Name": "Constellation 1 1528",
        "Satellite Number": 1528,
        "Semi-Major Axis(m)": 7083131.272910544,
        "Time(s)": 116
    },
    {
        "Altitude(m)": 702835.6268995978,
        "Argument of Periapsis(deg)": 0.007013916730712457,
        "Eccentricity": 0.0,
        "Inclination(deg)": 45.0,
        "Latitude(deg)": 6.507869427861348,
        "Longitude(deg)": 58.02044351156816,
        "Mean Anomaly(deg)": -189.26156659076176,
        "RAAN(deg)": 344.9933790676284,
        "Satellite Name": "Constellation 1 1528",
        "Satellite Number": 1528,
        "Semi-Major Axis(m)": 7083131.272910544,
        "Time(s)": 117
    },
    {
        "Altitude(m)": 702838.1093084717,
        "Argument of Periapsis(deg)": 0.007073864736957864,
        "Eccentricity": 0.0,
        "Inclination(deg)": 45.0,
        "Latitude(deg)": 6.464927627361692,
        "Longitude(deg)": 58.05975133835675,
        "Mean Anomaly(deg)": -189.20086545051194,
        "RAAN(deg)": 344.9933224784628,
        "Satellite Name": "Constellation 1 1528",
        "Satellite Number": 1528,
        "Semi-Major Axis(m)": 7083131.272910544,
        "Time(s)": 118
    },
    {
        "Altitude(m)": 702840.6122691617,
        "Argument of Periapsis(deg)": 0.0071338127432032696,
        "Eccentricity": 0.0,
        "Inclination(deg)": 45.0,
        "Latitude(deg)": 6.421982102929802,
        "Longitude(deg)": 58.09905162436229,
        "Mean Anomaly(deg)": -189.14016431026195,
        "RAAN(deg)": 344.9932658892973,
        "Satellite Name": "Constellation 1 1528",
        "Satellite Number": 1528,
        "Semi-Major Axis(m)": 7083131.272910544,
        "Time(s)": 119
    },
    {
        "Altitude(m)": 702843.1357891136,
        "Argument of Periapsis(deg)": 0.007193760749448674,
        "Eccentricity": 0.0,
        "Inclination(deg)": 45.0,
        "Latitude(deg)": 6.3790328805709,
        "Longitude(deg)": 58.13834475532502,
        "Mean Anomaly(deg)": -189.07946317001208,
        "RAAN(deg)": 344.99320930013164,
        "Satellite Name": "Constellation 1 1528",
        "Satellite Number": 1528,
        "Semi-Major Axis(m)": 7083131.272910544,
        "Time(s)": 120
    },
    {
        "Altitude(m)": 702845.6798756776,
        "Argument of Periapsis(deg)": 0.007253708755694079,
        "Eccentricity": 0.0,
        "Inclination(deg)": 45.0,
        "Latitude(deg)": 6.336079986275456,
        "Longitude(deg)": 58.17763061267834,
        "Mean Anomaly(deg)": -189.01876202976223,
        "RAAN(deg)": 344.99315271096606,
        "Satellite Name": "Constellation 1 1528",
        "Satellite Number": 1528,
        "Semi-Major Axis(m)": 7083131.272910544,
        "Time(s)": 121
    },
    {
        "Altitude(m)": 702848.2445361159,
        "Argument of Periapsis(deg)": 0.0073136567619394854,
        "Eccentricity": 0.0,
        "Inclination(deg)": 45.0,
        "Latitude(deg)": 6.293123446020189,
        "Longitude(deg)": 58.21690924593662,
        "Mean Anomaly(deg)": -188.95806088951235,
        "RAAN(deg)": 344.99309612180053,
        "Satellite Name": "Constellation 1 1528",
        "Satellite Number": 1528,
        "Semi-Major Axis(m)": 7083131.272910544,
        "Time(s)": 122
    },
    {
        "Altitude(m)": 702850.829777602,
        "Argument of Periapsis(deg)": 0.0073736047681848904,
        "Eccentricity": 0.0,
        "Inclination(deg)": 45.0,
        "Latitude(deg)": 6.250163285767828,
        "Longitude(deg)": 58.25618070459839,
        "Mean Anomaly(deg)": -188.89735974926242,
        "RAAN(deg)": 344.99303953263495,
        "Satellite Name": "Constellation 1 1528",
        "Satellite Number": 1528,
        "Semi-Major Axis(m)": 7083131.272910544,
        "Time(s)": 123
    },
    {
        "Altitude(m)": 702853.4356072128,
        "Argument of Periapsis(deg)": 0.007433552774430298,
        "Eccentricity": 0.0,
        "Inclination(deg)": 45.0,
        "Latitude(deg)": 6.2071995314675865,
        "Longitude(deg)": 58.29544503814634,
        "Mean Anomaly(deg)": -188.83665860901246,
        "RAAN(deg)": 344.99298294346943,
        "Satellite Name": "Constellation 1 1528",
        "Satellite Number": 1528,
        "Semi-Major Axis(m)": 7083131.272910544,
        "Time(s)": 124
    },
    {
        "Altitude(m)": 702856.0620319451,
        "Argument of Periapsis(deg)": 0.007493500780675703,
        "Eccentricity": 0.0,
        "Inclination(deg)": 45.0,
        "Latitude(deg)": 6.164232209054902,
        "Longitude(deg)": 58.33470229604753,
        "Mean Anomaly(deg)": -188.7759574687626,
        "RAAN(deg)": 344.99292635430385,
        "Satellite Name": "Constellation 1 1528",
        "Satellite Number": 1528,
        "Semi-Major Axis(m)": 7083131.272910544,
        "Time(s)": 125
    },
    {
        "Altitude(m)": 702858.7090586929,
        "Argument of Periapsis(deg)": 0.007553448786921108,
        "Eccentricity": 0.0,
        "Inclination(deg)": 45.0,
        "Latitude(deg)": 6.121261344451326,
        "Longitude(deg)": 58.37395235965661,
        "Mean Anomaly(deg)": -188.7152563285127,
        "RAAN(deg)": 344.9928697651382,
        "Satellite Name": "Constellation 1 1528",
        "Satellite Number": 1528,
        "Semi-Major Axis(m)": 7083131.272910544,
        "Time(s)": 126
    },
    {
        "Altitude(m)": 702861.3766942753,
        "Argument of Periapsis(deg)": 0.007613396793166514,
        "Eccentricity": 0.0,
        "Inclination(deg)": 45.0,
        "Latitude(deg)": 6.078286963565567,
        "Longitude(deg)": 58.41319561460396,
        "Mean Anomaly(deg)": -188.65455518826278,
        "RAAN(deg)": 344.9928131759727,
        "Satellite Name": "Constellation 1 1528",
        "Satellite Number": 1528,
        "Semi-Major Axis(m)": 7083131.272910544,
        "Time(s)": 127
    },
    {
        "Altitude(m)": 702864.0649454017,
        "Argument of Periapsis(deg)": 0.007673344799411918,
        "Eccentricity": 0.0,
        "Inclination(deg)": 45.0,
        "Latitude(deg)": 6.0353090922925325,
        "Longitude(deg)": 58.4524319422131,
        "Mean Anomaly(deg)": -188.59385404801293,
        "RAAN(deg)": 344.9927565868071,
        "Satellite Name": "Constellation 1 1528",
        "Satellite Number": 1528,
        "Semi-Major Axis(m)": 7083131.272910544,
        "Time(s)": 128
    },
    {
        "Altitude(m)": 702866.7738187099,
        "Argument of Periapsis(deg)": 0.007733292805657325,
        "Eccentricity": 0.0,
        "Inclination(deg)": 45.0,
        "Latitude(deg)": 5.992327756513754,
        "Longitude(deg)": 58.49166139188976,
        "Mean Anomaly(deg)": -188.53315290776303,
        "RAAN(deg)": 344.9926999976416,
        "Satellite Name": "Constellation 1 1528",
        "Satellite Number": 1528,
        "Semi-Major Axis(m)": 7083131.272910544,
        "Time(s)": 129
    },
    {
        "Altitude(m)": 702869.503320731,
        "Argument of Periapsis(deg)": 0.00779324081190273,
        "Eccentricity": 0.0,
        "Inclination(deg)": 45.0,
        "Latitude(deg)": 5.949342982097686,
        "Longitude(deg)": 58.53088401302442,
        "Mean Anomaly(deg)": -188.4724517675131,
        "RAAN(deg)": 344.992643408476,
        "Satellite Name": "Constellation 1 1528",
        "Satellite Number": 1528,
        "Semi-Major Axis(m)": 7083131.272910544,
        "Time(s)": 130
    },
    {
        "Altitude(m)": 702872.2534579186,
        "Argument of Periapsis(deg)": 0.007853188818148135,
        "Eccentricity": 0.0,
        "Inclination(deg)": 45.0,
        "Latitude(deg)": 5.906354794899801,
        "Longitude(deg)": 58.57009985499225,
        "Mean Anomaly(deg)": -188.41175062726322,
        "RAAN(deg)": 344.99258681931036,
        "Satellite Name": "Constellation 1 1528",
        "Satellite Number": 1528,
        "Semi-Major Axis(m)": 7083131.272910544,
        "Time(s)": 131
    },
    {
        "Altitude(m)": 702875.0242366268,
        "Argument of Periapsis(deg)": 0.007913136824393542,
        "Eccentricity": 0.0,
        "Inclination(deg)": 45.0,
        "Latitude(deg)": 5.863363220762403,
        "Longitude(deg)": 58.60930896715377,
        "Mean Anomaly(deg)": -188.35104948701337,
        "RAAN(deg)": 344.99253023014484,
        "Satellite Name": "Constellation 1 1528",
        "Satellite Number": 1528,
        "Semi-Major Axis(m)": 7083131.272910544,
        "Time(s)": 132
    }
]